[Satellite]
VERSION=1.1
NAME=GOSAT (IBUKI)
NICKNAME=GOSAT (IBUKI)
TLE1=1 33492U 09002A   15055.47430893 -.00000223  00000-0 -30871-4 0  9998
TLE2=2 33492  98.0641 166.0485 0001319  79.4222 280.7132 14.67548171326087
